{
"type": "FeatureCollection",
"name": "data_proyek_IKN",
"crs": { "type": "name", "properties": { "name": "urn:ogc:def:crs:OGC:1.3:CRS84" } },
"features": [
{ "type": "Feature", "properties": { "No.": 1, "Penyedia Jasa": "ADHI – JAYA KONSTRUKSI – CAHAYA, KSO", "Konsultan Supervisi": "ARIA JASA – PARAMA – WAHANA, KSO", "Nama Proyek": "Peningkatan Jalan Paket A di KIPP 1B", " Luas (m2) ": " 70,525.00 ", "Tanggal mulai kontrak ": "11 Juni 2025", "Tanggal selesai kontrak": "31 Desember 2025", "Mulai pekerjaan": "11 Juni 2025", "Skema pembiayaan": "APBN OIKN", "Rencana Pengembangan Kawasan ": "Transportasi", "Persentase Progres Fisik": "14.88%", "Gambar BIM 3D Desain ": null, "Gambar BIM 3D Progres": null, "Nama PPK": "Rizal Falevi, ST., MT.", "Longitude": 116.694975, "Latitude": -0.976433, "Jenis Kontrak (SYC/MYC)": "SYC", "Batch Pembangunan": "Batch 1", "Kelompok Proyek": "Jalan", "Tinggi Bangunan": null, "Banyaknya Lantai": null, "Panjang Jalan (km)": 1.275, "Lebar Jalan (m)": 44, "Ket Lain": null }, "geometry": { "type": "Point", "coordinates": [ 116.694975, -0.976433 ] } },
{ "type": "Feature", "properties": { "No.": 2, "Penyedia Jasa": "ABIPRAYA – PDK – INTIMKARA, KSO", "Konsultan Supervisi": "ARIA JASA – PARAMA – WAHANA, KSO", "Nama Proyek": "Peningkatan Jalan Paket B di KIPP 1B – 1C", " Luas (m2) ": " 162,457.52 ", "Tanggal mulai kontrak ": "11 Juni 2025", "Tanggal selesai kontrak": "31 Desember 2025", "Mulai pekerjaan": "11 Juni 2025", "Skema pembiayaan": "APBN OIKN", "Rencana Pengembangan Kawasan ": "Transportasi", "Persentase Progres Fisik": "23.74%", "Gambar BIM 3D Desain ": null, "Gambar BIM 3D Progres": null, "Nama PPK": "Rizal Falevi, ST., MT.", "Longitude": 116.690978, "Latitude": -0.983436, "Jenis Kontrak (SYC/MYC)": "SYC", "Batch Pembangunan": "Batch 1", "Kelompok Proyek": "Jalan", "Tinggi Bangunan": null, "Banyaknya Lantai": null, "Panjang Jalan (km)": 1.99, "Lebar Jalan (m)": 44, "Ket Lain": null }, "geometry": { "type": "Point", "coordinates": [ 116.690978, -0.983436 ] } },
{ "type": "Feature", "properties": { "No.": 3, "Penyedia Jasa": "NINDYA – WKGU – TMPP, KSO", "Konsultan Supervisi": "AGRINAS JALADRI NUSANTARA, KSO", "Nama Proyek": "Peningkatan Jalan Paket C di KIPP 1B – 1C", " Luas (m2) ": " 153,143.99 ", "Tanggal mulai kontrak ": "11 Juni 2025", "Tanggal selesai kontrak": "31 Desember 2025", "Mulai pekerjaan": "11 Juni 2025", "Skema pembiayaan": "APBN OIKN", "Rencana Pengembangan Kawasan ": "Transportasi", "Persentase Progres Fisik": "32.47%", "Gambar BIM 3D Desain ": null, "Gambar BIM 3D Progres": null, "Nama PPK": "Almi Mardhani, ST. Msc.Eng.", "Longitude": 116.671003, "Latitude": -0.989622, "Jenis Kontrak (SYC/MYC)": "SYC", "Batch Pembangunan": "Batch 1", "Kelompok Proyek": "Jalan", "Tinggi Bangunan": null, "Banyaknya Lantai": null, "Panjang Jalan (km)": 1.81, "Lebar Jalan (m)": 44, "Ket Lain": null }, "geometry": { "type": "Point", "coordinates": [ 116.671003, -0.989622 ] } },
{ "type": "Feature", "properties": { "No.": 4, "Penyedia Jasa": "WASKITA – BANGUNNUSA – GEMA, KSO", "Konsultan Supervisi": "AGRINAS JALADRI NUSANTARA, KSO", "Nama Proyek": "Peningkatan Jalan Paket D di KIPP 1B – 1C", " Luas (m2) ": " 61,915.58 ", "Tanggal mulai kontrak ": "11 Juni 2025", "Tanggal selesai kontrak": "31 Desember 2025", "Mulai pekerjaan": "11 Juni 2025", "Skema pembiayaan": "APBN OIKN", "Rencana Pengembangan Kawasan ": "Transportasi", "Persentase Progres Fisik": "25.16%", "Gambar BIM 3D Desain ": null, "Gambar BIM 3D Progres": null, "Nama PPK": "Almi Mardhani, ST. Msc.Eng.", "Longitude": 116.662866, "Latitude": -1.00579, "Jenis Kontrak (SYC/MYC)": "SYC", "Batch Pembangunan": "Batch 1", "Kelompok Proyek": "Jalan", "Tinggi Bangunan": null, "Banyaknya Lantai": null, "Panjang Jalan (km)": 1.425, "Lebar Jalan (m)": 44, "Ket Lain": null }, "geometry": { "type": "Point", "coordinates": [ 116.662866, -1.00579 ] } },
{ "type": "Feature", "properties": { "No.": 5, "Penyedia Jasa": "MODERN – YASA, KSO", "Konsultan Supervisi": "AGRINAS JALADRI NUSANTARA, KSO", "Nama Proyek": "Peningkatan Jalan Paket E di KIPP 1B", " Luas (m2) ": " 56,328.00 ", "Tanggal mulai kontrak ": "11 Juni 2025", "Tanggal selesai kontrak": "31 Desember 2025", "Mulai pekerjaan": "11 Juni 2025", "Skema pembiayaan": "APBN OIKN", "Rencana Pengembangan Kawasan ": "Transportasi", "Persentase Progres Fisik": "18.40%", "Gambar BIM 3D Desain ": null, "Gambar BIM 3D Progres": null, "Nama PPK": "Leatemia Leonardo", "Longitude": 116.679507, "Latitude": -0.987177, "Jenis Kontrak (SYC/MYC)": "SYC", "Batch Pembangunan": "Batch 1", "Kelompok Proyek": "Jalan", "Tinggi Bangunan": null, "Banyaknya Lantai": null, "Panjang Jalan (km)": 2.286, "Lebar Jalan (m)": 24, "Ket Lain": null }, "geometry": { "type": "Point", "coordinates": [ 116.679507, -0.987177 ] } },
{ "type": "Feature", "properties": { "No.": 6, "Penyedia Jasa": "HK – PP, KSO", "Konsultan Supervisi": "ARIA JASA – PARAMA – WAHANA, KSO", "Nama Proyek": "Peningkatan Jalan Paket F di KIPP 1B", " Luas (m2) ": " 170,246.30 ", "Tanggal mulai kontrak ": "11 Juni 2025", "Tanggal selesai kontrak": "31 Desember 2025", "Mulai pekerjaan": "11 Juni 2025", "Skema pembiayaan": "APBN OIKN", "Rencana Pengembangan Kawasan ": "Transportasi", "Persentase Progres Fisik": "25.46%", "Gambar BIM 3D Desain ": null, "Gambar BIM 3D Progres": null, "Nama PPK": "Leatemia Leonardo", "Longitude": 116.687524, "Latitude": -0.992435, "Jenis Kontrak (SYC/MYC)": "SYC", "Batch Pembangunan": "Batch 1", "Kelompok Proyek": "Jalan", "Tinggi Bangunan": null, "Banyaknya Lantai": null, "Panjang Jalan (km)": 2.545, "Lebar Jalan (m)": 54, "Ket Lain": "Proyek ini terdiri dari 2 lebar ROW jalan, yakni 36 m & 54 m" }, "geometry": { "type": "Point", "coordinates": [ 116.687524, -0.992435 ] } },
{ "type": "Feature", "properties": { "No.": 7, "Penyedia Jasa": "WIKA – SPT, KSO", "Konsultan Supervisi": "AGRINAS JALADRI NUSANTARA, KSO", "Nama Proyek": "Peningkatan Jalan Paket G di KIPP 1B – 1C", " Luas (m2) ": " 72,230.00 ", "Tanggal mulai kontrak ": "11 Juni 2025", "Tanggal selesai kontrak": "31 Desember 2025", "Mulai pekerjaan": "11 Juni 2025", "Skema pembiayaan": "APBN OIKN", "Rencana Pengembangan Kawasan ": "Transportasi", "Persentase Progres Fisik": "32.95%", "Gambar BIM 3D Desain ": null, "Gambar BIM 3D Progres": null, "Nama PPK": "Almi Mardhani, ST. Msc.Eng.", "Longitude": 116.662857, "Latitude": -1.005798, "Jenis Kontrak (SYC/MYC)": "SYC", "Batch Pembangunan": "Batch 1", "Kelompok Proyek": "Jalan", "Tinggi Bangunan": null, "Banyaknya Lantai": null, "Panjang Jalan (km)": 1.0, "Lebar Jalan (m)": 44, "Ket Lain": null }, "geometry": { "type": "Point", "coordinates": [ 116.662857, -1.005798 ] } }
]
}
